NORAD_CAT_ID,OBJECT_NAME,OBJECT_TYPE,EPOCH,MEAN_MOTION,ECCENTRICITY,INCLINATION,RA_OF_ASC_NODE,ARG_OF_PERICENTER,MEAN_ANOMALY,BSTAR,MEAN_MOTION_DOT,MEAN_MOTION_DDOT,TLE_LINE0,TLE_LINE1,TLE_LINE2,SEMIMAJOR_AXIS,PERIOD,APOGEE,PERIGEE,DECAYED
53777.0,STARLINK-4664,PAYLOAD,2024-08-01 04:35:50,15.08872241,8.75e-05,53.2182,22.6836,98.1651,261.944,-0.00032113,-5.399e-05,0.0,0 STARLINK-4664,1 53777U 22111E   24214.19156228 -.00005399  00000-0 -32113-3 0  9994,2 53777  53.2182  22.6836 0000875  98.1651 261.9440 15.08872241104491,6917.782,95.436,540.252,539.042,0.0
53777.0,STARLINK-4664,PAYLOAD,2024-08-01 20:29:42,15.08852964,0.0001446,53.2181,19.7049,96.6563,263.4594,0.00023824,3.507e-05,0.0,0 STARLINK-4664,1 53777U 22111E   24214.85395994  .00003507  00000-0  23824-3 0  9998,2 53777  53.2181  19.7049 0001446  96.6563 263.4594 15.08852964104591,6917.841,95.437,540.706,538.705,0.0
53777.0,STARLINK-4664,PAYLOAD,2024-08-02 04:26:39,15.08836006,0.0001771,53.2184,18.2237,81.6198,278.4995,9.4661e-05,1.219e-05,0.0,0 STARLINK-4664,1 53777U 22111E   24215.18517773  .00001219  00000-0  94661-4 0  9992,2 53777  53.2184  18.2237 0001771  81.6198 278.4995 15.08836006104642,6917.893,95.438,540.983,538.532,0.0
53777.0,STARLINK-4664,PAYLOAD,2024-08-02 10:48:12,15.08834897,0.0001909,53.2181,17.0337,83.8473,276.2736,0.00011333,1.516e-05,0.0,0 STARLINK-4664,1 53777U 22111E   24215.45013994  .00001516  00000-0  11333-3 0  9992,2 53777  53.2181  17.0337 0001909  83.8473 276.2736 15.08834897105499,6917.896,95.438,541.082,538.44,0.0
53777.0,STARLINK-4664,PAYLOAD,2024-08-02 17:09:44,15.08835776,0.0001763,53.2186,15.8417,93.2746,266.8448,9.472e-05,1.22e-05,0.0,0 STARLINK-4664,1 53777U 22111E   24215.71510070  .00001220  00000-0  94720-4 0  9992,2 53777  53.2186  15.8417 0001763  93.2746 266.8448 15.08835776105532,6917.893,95.438,540.978,538.539,0.0
53777.0,STARLINK-4664,PAYLOAD,2024-08-03 10:38:58,15.08843729,0.0001484,53.2182,12.5713,93.5097,266.6065,6.2605e-05,7.09e-06,0.0,0 STARLINK-4664,1 53777U 22111E   24216.44373563  .00000709  00000-0  62605-4 0  9995,2 53777  53.2182  12.5713 0001484  93.5097 266.6065 15.08843729104835,6917.869,95.437,540.761,538.707,0.0
53777.0,STARLINK-4664,PAYLOAD,2024-08-03 13:49:44,15.08846635,0.0001581,53.2178,11.9777,90.3906,269.7267,9.9131e-05,1.29e-05,0.0,0 STARLINK-4664,1 53777U 22111E   24216.57621451  .00001290  00000-0  99131-4 0  9991,2 53777  53.2178  11.9777 0001581  90.3906 269.7267 15.08846635105664,6917.86,95.437,540.819,538.631,0.0
53777.0,STARLINK-4664,PAYLOAD,2024-08-03 20:11:16,15.08856807,0.0001577,53.2183,10.7866,90.0433,270.074,0.00014203,1.974e-05,0.0,0 STARLINK-4664,1 53777U 22111E   24216.84116865  .00001974  00000-0  14203-3 0  9994,2 53777  53.2183  10.7866 0001577  90.0433 270.0740 15.08856807104890,6917.829,95.436,540.785,538.603,0.0
53777.0,STARLINK-4664,PAYLOAD,2024-08-04 13:40:32,15.08835497,0.0001616,53.2172,7.513,94.2989,265.8188,0.00016982,2.415e-05,0.0,0 STARLINK-4664,1 53777U 22111E   24217.56982173  .00002415  00000-0  16982-3 0  9994,2 53777  53.2172   7.5130 0001616  94.2989 265.8188 15.08835497105815,6917.894,95.438,540.877,538.641,0.0
53777.0,STARLINK-4664,PAYLOAD,2024-08-04 20:02:04,15.08853901,0.0001593,53.2187,6.325,93.0175,267.1,0.00030604,4.588e-05,0.0,0 STARLINK-4664,1 53777U 22111E   24217.83477126  .00004588  00000-0  30604-3 0  9991,2 53777  53.2187   6.3250 0001593  93.0175 267.1000 15.08853901105042,6917.838,95.437,540.805,538.601,0.0
53777.0,STARLINK-4664,PAYLOAD,2024-08-05 16:42:04,15.08858998,0.0001366,53.218,2.4622,81.0333,279.0814,0.00029557,4.422e-05,0.0,0 STARLINK-4664,1 53777U 22111E   24218.69588344  .00004422  00000-0  29557-3 0  9993,2 53777  53.2180   2.4622 0001366  81.0333 279.0814 15.08858998105985,6917.822,95.436,540.632,538.742,0.0
53777.0,STARLINK-4664,PAYLOAD,2024-08-06 02:14:23,15.08847428,0.0001131,53.2169,0.6794,77.3395,282.7724,4.4284e-05,4.17e-06,0.0,0 STARLINK-4664,1 53777U 22111E   24219.09332587  .00000417  00000-0  44284-4 0  9999,2 53777  53.2169   0.6794 0001131  77.3395 282.7724 15.08847428105233,6917.858,95.437,540.505,538.94,0.0
53777.0,STARLINK-4664,PAYLOAD,2024-08-06 08:35:56,15.08832146,0.0002402,53.2183,359.4854,84.5622,275.5644,-0.00015755,-2.794e-05,0.0,0 STARLINK-4664,1 53777U 22111E   24219.35829589 -.00002794  00000-0 -15755-3 0  9993,2 53777  53.2183 359.4854 0002402  84.5622 275.5644 15.08832146105272,6917.904,95.438,541.431,538.108,0.0
53777.0,STARLINK-4664,PAYLOAD,2024-08-06 13:22:06,15.0882445,0.000152,53.2184,358.5968,102.7183,257.3979,-0.0004335,-7.178e-05,0.0,0 STARLINK-4664,1 53777U 22111E   24219.55701426 -.00007178  00000-0 -43350-3 0  9997,2 53777  53.2184 358.5968 0001520 102.7183 257.3979 15.08824450106116,6917.928,95.439,540.844,538.741,0.0
53777.0,STARLINK-4664,PAYLOAD,2024-08-06 19:43:38,15.08827083,0.0001551,53.2183,357.4074,106.692,253.4243,0.00063797,9.876e-05,0.0,0 STARLINK-4664,1 53777U 22111E   24219.82197656  .00009876  00000-0  63797-3 0  9993,2 53777  53.2183 357.4074 0001551 106.6920 253.4243 15.08827083106157,6917.92,95.438,540.858,538.712,0.0
53777.0,STARLINK-4664,PAYLOAD,2024-08-07 08:26:44,15.08833463,0.0001292,53.2175,355.0276,96.7659,263.348,0.00086934,0.00013572,0.0,0 STARLINK-4664,1 53777U 22111E   24220.35190224  .00013572  00000-0  86934-3 0  9993,2 53777  53.2175 355.0276 0001292  96.7659 263.3480 15.08833463106237,6917.9,95.438,540.659,538.872,0.0
53777.0,STARLINK-4664,PAYLOAD,2024-08-07 16:23:39,15.08852717,0.0001293,53.2173,353.5416,99.5029,260.6109,0.0010578,0.00016593,0.0,0 STARLINK-4664,1 53777U 22111E   24220.68309859  .00016593  00000-0  10578-2 0  9991,2 53777  53.2173 353.5416 0001293  99.5029 260.6109 15.08852717105473,6917.842,95.437,540.601,538.812,0.0
53777.0,STARLINK-4664,PAYLOAD,2024-08-08 13:03:41,15.08832515,0.0001911,53.2169,349.678,71.9782,288.1418,0.00088153,0.00013767,0.0,0 STARLINK-4664,1 53777U 22111E   24221.54422965  .00013767  00000-0  88153-3 0  9996,2 53777  53.2169 349.6780 0001911  71.9782 288.1418 15.08832515106412,6917.903,95.438,541.09,538.446,0.0
53777.0,STARLINK-4664,PAYLOAD,2024-08-08 16:14:27,15.08844441,0.0001739,53.2168,349.0812,71.9736,288.1446,0.00046744,7.16e-05,0.0,0 STARLINK-4664,1 53777U 22111E   24221.67670675  .00007160  00000-0  46744-3 0  9993,2 53777  53.2168 349.0812 0001739  71.9736 288.1446 15.08844441105622,6917.867,95.437,540.935,538.529,0.0
53777.0,STARLINK-4664,PAYLOAD,2024-08-09 14:29:50,15.08850814,0.0001463,53.2146,344.9198,94.6041,265.5118,0.00050533,7.766e-05,0.0,0 STARLINK-4664,1 53777U 22111E   24222.60406210  .00007766  00000-0  50533-3 0  9992,2 53777  53.2146 344.9198 0001463  94.6041 265.5118 15.08850814106575,6917.847,95.437,540.724,538.7,0.0
53777.0,STARLINK-4664,PAYLOAD,2024-08-10 12:45:13,15.08870568,0.0001618,53.2179,340.7556,96.989,263.1287,0.00038419,5.837e-05,0.0,0 STARLINK-4664,1 53777U 22111E   24223.53140550  .00005837  00000-0  38419-3 0  9993,2 53777  53.2179 340.7556 0001618  96.9890 263.1287 15.08870568105907,6917.787,95.436,540.771,538.533,0.0
53777.0,STARLINK-4664,PAYLOAD,2024-08-10 14:20:36,15.08876075,0.000166,53.2167,340.458,87.2656,272.8526,0.00060486,9.361e-05,0.0,0 STARLINK-4664,1 53777U 22111E   24223.59764347  .00009361  00000-0  60486-3 0  9990,2 53777  53.2167 340.4580 0001660  87.2656 272.8526 15.08876075106721,6917.77,95.435,540.783,538.487,0.0
53777.0,STARLINK-4664,PAYLOAD,2024-08-11 07:49:50,15.08852953,0.0002363,53.2178,337.1848,100.1304,259.9955,-0.0001212,-2.218e-05,0.0,0 STARLINK-4664,1 53777U 22111E   24224.32627868 -.00002218  00000-0 -12120-3 0  9996,2 53777  53.2178 337.1848 0002363 100.1304 259.9955 15.08852953106023,6917.841,95.437,541.34,538.071,0.0
53777.0,STARLINK-4664,PAYLOAD,2024-08-11 17:22:09,15.08856673,0.0002377,53.218,335.4027,99.5674,260.5587,0.00020516,2.98e-05,0.0,0 STARLINK-4664,1 53777U 22111E   24224.72371640  .00002980  00000-0  20516-3 0  9996,2 53777  53.2180 335.4027 0002377  99.5674 260.5587 15.08856673106899,6917.829,95.437,541.339,538.05,0.0
53777.0,STARLINK-4664,PAYLOAD,2024-08-12 07:40:38,15.08824866,0.0001434,53.2175,332.7257,112.5102,247.6042,-0.00029306,-4.947e-05,0.0,0 STARLINK-4664,1 53777U 22111E   24225.31988520 -.00004947  00000-0 -29306-3 0  9996,2 53777  53.2175 332.7257 0001434 112.5102 247.6042 15.08824866106175,6917.927,95.439,540.784,538.8,0.0
53777.0,STARLINK-4664,PAYLOAD,2024-08-12 14:02:10,15.08854126,5.25e-05,53.2176,331.5362,108.7243,251.3807,0.0009094,0.0001422,0.0,0 STARLINK-4664,1 53777U 22111E   24225.58484220  .00014220  00000-0  90940-3 0  9998,2 53777  53.2176 331.5362 0000525 108.7243 251.3807 15.08854126107021,6917.837,95.437,540.065,539.339,0.0
53777.0,STARLINK-4664,PAYLOAD,2024-08-13 05:56:02,15.08789837,0.0002796,53.2145,328.5641,89.6804,270.4509,-0.0012585,-0.00020236,0.0,0 STARLINK-4664,1 53777U 22111E   24226.24725639 -.00020236  00000-0 -12585-2 0  9998,2 53777  53.2145 328.5641 0002796  89.6804 270.4509 15.08789837106313,6918.034,95.441,541.833,537.964,0.0
53777.0,STARLINK-4664,PAYLOAD,2024-08-13 13:52:59,15.08784969,0.0001475,53.2142,327.0751,91.0448,269.0713,-0.00082223,-0.0001333,0.0,0 STARLINK-4664,1 53777U 22111E   24226.57846905 -.00013330  00000-0 -82223-3 0  9998,2 53777  53.2142 327.0751 0001475  91.0448 269.0713 15.08784969107177,6918.049,95.441,540.934,538.893,0.0
53777.0,STARLINK-4664,PAYLOAD,2024-08-13 17:03:46,15.0878481,0.000151,53.215,326.4807,92.7573,267.3592,-0.0004907,-8.077e-05,0.0,0 STARLINK-4664,1 53777U 22111E   24226.71095461 -.00008077  00000-0 -49070-3 0  9992,2 53777  53.2150 326.4807 0001510  92.7573 267.3592 15.08784810107191,6918.049,95.441,540.959,538.869,0.0
53777.0,STARLINK-4664,PAYLOAD,2024-08-13 23:25:19,15.08792603,0.00018,53.2192,325.2934,98.8419,261.2777,0.00056455,8.697e-05,0.0,0 STARLINK-4664,1 53777U 22111E   24226.97592436  .00008697  00000-0  56455-3 0  9995,2 53777  53.2192 325.2934 0001800  98.8419 261.2777 15.08792603106425,6918.025,95.441,541.136,538.645,0.0
